H1 CPF 01  gfz 2022 05 26 00  6461 terrasarx 
H2 0702601  6201 31698    2022 05 26 00 59 42 2022 05 31 00 00 42   120 1 1  0 0 0
H9
10 0 59725  20142.000000  0   -6840343.060   -798443.325   -198558.352
10 0 59725  20262.000000  0   -6824379.878   -617480.617    705461.541
10 0 59725  20382.000000  0   -6685866.268   -427074.820   1597059.233
10 0 59725  20502.000000  0   -6427077.526   -232677.737   2460530.433
10 0 59725  20622.000000  0   -6052510.540    -39754.122   3280666.668
10 0 59725  20742.000000  0   -5568799.682    146354.162   4043030.927
10 0 59725  20862.000000  0   -4984590.066    320559.314   4734216.511
10 0 59725  20982.000000  0   -4310372.467    478150.982   5342083.777
10 0 59725  21102.000000  0   -3558285.329    614909.707   5855971.132
10 0 59725  21222.000000  0   -2741887.332    727206.942   6266878.660
10 0 59725  21342.000000  0   -1875905.642    812089.589   6567620.483
10 0 59725  21462.000000  0    -975964.600    867348.814   6752944.756
10 0 59725  21582.000000  0     -58301.265    891570.706   6819618.526
10 0 59725  21702.000000  0     860527.088    884168.067   6766479.913
10 0 59725  21822.000000  0    1763940.368    845393.464   6594457.058
10 0 59725  21942.000000  0    2635633.656    776333.056   6306553.083
10 0 59725  22062.000000  0    3459871.452    678881.050   5907797.782
10 0 59725  22182.000000  0    4221774.305    555695.311   5405164.772
10 0 59725  22302.000000  0    4907591.112    410134.853   4807455.452
10 0 59725  22422.000000  0    5504953.982    246179.319   4125151.565
10 0 59725  22542.000000  0    6003111.132     68333.843   3370235.824
10 0 59725  22662.000000  0    6393131.070   -118479.048   2555982.563
10 0 59725  22782.000000  0    6668071.928   -309039.585   1696722.294
10 0 59725  22902.000000  0    6823113.402   -497960.216    807586.203
10 0 59725  23022.000000  0    6855648.009   -679818.797    -95766.886
10 0 59725  23142.000000  0    6765327.763   -849294.333   -997435.592
10 0 59725  23262.000000  0    6554063.807  -1001301.195  -1881564.925
10 0 59725  23382.000000  0    6225981.024  -1131117.927  -2732633.126
10 0 59725  23502.000000  0    5787328.469  -1234507.712  -3535729.542
10 0 59725  23622.000000  0    5246349.130  -1307827.284  -4276818.141
10 0 59725  23742.000000  0    4613112.818  -1348121.396  -4942981.206
10 0 59725  23862.000000  0    3899317.655  -1353201.591  -5522639.464
10 0 59725  23982.000000  0    3118063.960  -1321708.161  -6005745.401
10 0 59725  24102.000000  0    2283606.965  -1253153.129  -6383946.405
10 0 59725  24222.000000  0    1411094.155  -1147943.276  -6650718.245
10 0 59725  24342.000000  0     516290.785  -1007384.656  -6801466.916
10 0 59725  24462.000000  0    -384701.170   -833668.209  -6833599.400
10 0 59725  24582.000000  0   -1275726.455   -629836.062  -6746562.918
10 0 59725  24702.000000  0   -2140859.667   -399729.412  -6541853.823
10 0 59725  24822.000000  0   -2964683.611   -147918.258  -6222993.485
10 0 59725  24942.000000  0   -3732557.754    120385.295  -5795474.237
10 0 59725  25062.000000  0   -4430877.090    399429.933  -5266675.628
10 0 59725  25182.000000  0   -5047315.058    683041.903  -4645747.750
10 0 59725  25302.000000  0   -5571047.375    964754.366  -3943465.555
10 0 59725  25422.000000  0   -5992952.286   1237948.104  -3172051.634
10 0 59725  25542.000000  0   -6305780.982   1495999.287  -2344970.382
10 0 59725  25662.000000  0   -6504294.751   1732430.977  -1476696.569
10 0 59725  25782.000000  0   -6585365.272   1941065.745   -582461.642
10 0 59725  25902.000000  0   -6548033.474   2116174.549    322018.742
10 0 59725  26022.000000  0   -6393524.267   2252617.933   1220828.203
10 0 59725  26142.000000  0   -6125217.751   2345977.112   2098137.995
10 0 59725  26262.000000  0   -5748576.538   2392670.709   2938495.067
10 0 59725  26382.000000  0   -5271031.334   2390053.428   3727102.431
10 0 59725  26502.000000  0   -4701827.279   2336494.074   4450085.866
10 0 59725  26622.000000  0   -4051836.191   2231432.000   5094740.031
10 0 59725  26742.000000  0   -3333340.831   2075410.774   5649750.948
10 0 59725  26862.000000  0   -2559795.256   1870088.992   6105392.528
10 0 59725  26982.000000  0   -1745565.127   1618226.980   6453692.634
10 0 59725  27102.000000  0    -905655.440   1323649.874   6688566.102
10 0 59725  27222.000000  0     -55431.827    991188.673   6805913.580
10 0 59725  27342.000000  0     789659.910    626600.270   6803688.156
10 0 59725  27462.000000  0    1614373.249    236467.757   6681928.639
10 0 59725  27582.000000  0    2403934.609   -171917.633   6442759.166
10 0 59725  27702.000000  0    3144307.643   -590691.975   6090355.756
10 0 59725  27822.000000  0    3822444.859  -1011568.604   5630878.201
10 0 59725  27942.000000  0    4426521.391  -1426000.806   5072367.933
10 0 59725  28062.000000  0    4946146.222  -1825354.399   4424613.246
10 0 59725  28182.000000  0    5372548.940  -2201086.173   3698983.495
10 0 59725  28302.000000  0    5698737.170  -2544925.710   2908231.999
10 0 59725  28422.000000  0    5919618.641  -2849055.941   2066271.043
10 0 59725  28542.000000  0    6032086.558  -3106287.576   1187924.886
10 0 59725  28662.000000  0    6035066.942  -3310224.319    288663.068
10 0 59725  28782.000000  0    5929523.396  -3455412.859   -615680.087
10 0 59725  28902.000000  0    5718421.857  -3537475.015  -1509193.601
10 0 59725  29022.000000  0    5406652.785  -3553216.838  -2376178.916
10 0 59725  29142.000000  0    5000916.500  -3500713.802  -3201431.707
10 0 59725  29262.000000  0    4509573.854  -3379369.808  -3970512.659
10 0 59725  29382.000000  0    3942466.314  -3189948.998  -4670000.366
10 0 59725  29502.000000  0    3310710.331  -2934579.224  -5287722.354
10 0 59725  29622.000000  0    2626472.218  -2616727.945  -5812958.786
10 0 59725  29742.000000  0    1902730.398  -2241153.658  -6236617.984
10 0 59725  29862.000000  0    1153027.979  -1813832.572  -6551384.558
10 0 59725  29982.000000  0     391219.162  -1341860.304  -6751835.276
10 0 59725  30102.000000  0    -368783.559   -833333.551  -6834522.109
10 0 59725  30222.000000  0   -1113257.859   -297212.995  -6798024.283
10 0 59725  30342.000000  0   -1828913.566    256831.017  -6642969.942
10 0 59725  30462.000000  0   -2503124.478    818588.543  -6372025.673
10 0 59725  30582.000000  0   -3124146.098   1377493.086  -5989855.663
10 0 59725  30702.000000  0   -3681317.795   1922815.472  -5503050.726
10 0 59725  30822.000000  0   -4165248.000   2443866.338  -4920026.612
10 0 59725  30942.000000  0   -4567977.566   2930204.459  -4250889.327
10 0 59725  31062.000000  0   -4883116.872   3371845.467  -3507269.632
10 0 59725  31182.000000  0   -5105955.269   3759467.874  -2702130.245
10 0 59725  31302.000000  0   -5233539.463   4084612.095  -1849544.839
10 0 59725  31422.000000  0   -5264718.367   4339866.457   -964453.842
10 0 59725  31542.000000  0   -5200153.087   4519036.245    -62400.078
10 0 59725  31662.000000  0   -5042290.154   4617291.200    840750.271
10 0 59725  31782.000000  0   -4795297.771   4631285.724   1729096.049
10 0 59725  31902.000000  0   -4464966.580   4559248.822   2586990.539
10 0 59725  32022.000000  0   -4058577.412   4401042.612   3399325.394
10 0 59725  32142.000000  0   -3584740.264   4158187.307   4151803.181
10 0 59725  32262.000000  0   -3053209.420   3833852.183   4831192.861
10 0 59725  32382.000000  0   -2474678.729   3432813.334   5425564.164
10 0 59725  32502.000000  0   -1860561.573   2961379.120   5924495.452
10 0 59725  32622.000000  0   -1222761.288   2427285.687   6319252.128
10 0 59725  32742.000000  0    -573437.341   1839564.496   6602932.495
10 0 59725  32862.000000  0      75226.068   1208386.604   6770581.596
10 0 59725  32982.000000  0     711248.549    544884.668   6819273.015
10 0 59725  33102.000000  0    1323073.924   -139043.334   6748156.036
10 0 59725  33222.000000  0    1899779.056   -830946.528   6558470.286
10 0 59725  33342.000000  0    2431268.426  -1518047.337   6253525.795
10 0 59725  33462.000000  0    2908451.828  -2187476.603   5838649.873
10 0 59725  33582.000000  0    3323402.662  -2826515.576   5321099.428
10 0 59725  33702.000000  0    3669492.841  -3422839.325   4709940.012
10 0 59725  33822.000000  0    3941502.908  -3964757.972   4015892.649
10 0 59725  33942.000000  0    4135704.745  -4441450.693   3251149.300
10 0 59725  34062.000000  0    4249914.330  -4843187.342   2429159.960
10 0 59725  34182.000000  0    4283513.860  -5161532.183   1564394.133
10 0 59725  34302.000000  0    4237441.510  -5389524.220    672081.128
10 0 59725  34422.000000  0    4114148.658  -5521829.068   -232065.185
10 0 59725  34542.000000  0    3917527.521  -5554859.806  -1132130.520
10 0 59725  34662.000000  0    3652808.609  -5486863.251  -2012290.099
10 0 59725  34782.000000  0    3326431.397  -5317967.716  -2857094.236
10 0 59725  34902.000000  0    2945892.887  -5050193.331  -3651745.352
10 0 59725  35022.000000  0    2519576.330  -4687424.063  -4382359.635
10 0 59725  35142.000000  0    2056565.561  -4235343.327  -5036207.844
10 0 59725  35262.000000  0    1566450.983  -3701334.825  -5601930.915
10 0 59725  35382.000000  0    1059131.804  -3094353.305  -6069727.754
10 0 59725  35502.000000  0     544617.313  -2424768.545  -6431514.589
10 0 59725  35622.000000  0      32831.412  -1704184.196  -6681053.860
10 0 59725  35742.000000  0    -466574.915   -945235.330  -6814051.144
10 0 59725  35862.000000  0    -944400.386   -161368.771  -6828220.910
10 0 59725  35982.000000  0   -1392058.635    633390.353  -6723320.737
10 0 59725  36102.000000  0   -1801729.020   1424682.915  -6501154.588
10 0 59725  36222.000000  0   -2166489.945   2198068.832  -6165544.983
10 0 59725  36342.000000  0   -2480434.686   2939284.543  -5722275.391
10 0 59725  36462.000000  0   -2738767.604   3634503.498  -5179000.912
10 0 59725  36582.000000  0   -2937879.284   4270594.351  -4545128.024
99
